start=new Date('2022-11-09T00:00:00.000Z').valueOf();
sats=[{"GP_ID":"217204947","FILE":"3649076","INCLINATION":"53.2171","TLE_LINE1":"1 54185U 22141AE  22312.91667824 -.00824679  00000-0 -62515-2 0  9995","REV_AT_EPOCH":"130","TLE_LINE2":"2 54185  53.2171  85.1328 0001385  48.1704 286.2110 15.74001243  1303","OBJECT_ID":"2022-141AE","APOAPSIS":"348.408","ARG_OF_PERICENTER":"48.1704","OBJECT_TYPE":"PAYLOAD","ELEMENT_SET_NO":"999","RCS_SIZE":"MEDIUM","OBJECT_NAME":"STARLINK-5235","EPOCH":"2022-11-08T22:00:00.999936","CLASSIFICATION_TYPE":"U","SITE":"AFWTR","CENTER_NAME":"EARTH","REF_FRAME":"TEME","DECAY_DATE":null,"COUNTRY_CODE":"US","ECCENTRICITY":"0.00013850","MEAN_ANOMALY":"286.2110","MEAN_ELEMENT_THEORY":"SGP4","BSTAR":"-0.00625150000000","EPHEMERIS_TYPE":"0","PERIOD":"91.487","MEAN_MOTION_DDOT":"0.0000000000000","SEMIMAJOR_AXIS":"6725.612","TIME_SYSTEM":"UTC","MEAN_MOTION":"15.74001243","MEAN_MOTION_DOT":"-0.00824679","PERIAPSIS":"346.545","NORAD_CAT_ID":"54185","RA_OF_ASC_NODE":"85.1328","LAUNCH_DATE":"2022-10-28"},{"TLE_LINE2":"2 54186  53.2166  85.1230 0001461  42.1699 296.7876 15.74186448  1308","GP_ID":"217204442","REV_AT_EPOCH":"130","TLE_LINE1":"1 54186U 22141AF  22312.91667824 -.00978933  00000-0 -73676-2 0  9999","INCLINATION":"53.2166","FILE":"3649076","RCS_SIZE":"MEDIUM","SITE":"AFWTR","EPOCH":"2022-11-08T22:00:00.999936","OBJECT_NAME":"STARLINK-5194","CLASSIFICATION_TYPE":"U","APOAPSIS":"347.932","OBJECT_ID":"2022-141AF","ARG_OF_PERICENTER":"42.1699","OBJECT_TYPE":"PAYLOAD","ELEMENT_SET_NO":"999","MEAN_ANOMALY":"296.7876","DECAY_DATE":null,"ECCENTRICITY":"0.00014610","COUNTRY_CODE":"US","CENTER_NAME":"EARTH","REF_FRAME":"TEME","MEAN_MOTION_DOT":"-0.00978933","MEAN_MOTION":"15.74186448","NORAD_CAT_ID":"54186","PERIAPSIS":"345.967","LAUNCH_DATE":"2022-10-28","RA_OF_ASC_NODE":"85.1230","MEAN_ELEMENT_THEORY":"SGP4","PERIOD":"91.476","EPHEMERIS_TYPE":"0","BSTAR":"-0.00736760000000","MEAN_MOTION_DDOT":"0.0000000000000","SEMIMAJOR_AXIS":"6725.084","TIME_SYSTEM":"UTC"},{"ARG_OF_PERICENTER":"57.4055","OBJECT_ID":"2022-141AG","APOAPSIS":"348.469","ELEMENT_SET_NO":"999","OBJECT_TYPE":"PAYLOAD","RCS_SIZE":"MEDIUM","OBJECT_NAME":"STARLINK-5240","EPOCH":"2022-11-08T22:00:00.999936","CLASSIFICATION_TYPE":"U","SITE":"AFWTR","FILE":"3649076","TLE_LINE1":"1 54187U 22141AG  22312.91667824 -.00825853  00000-0 -62637-2 0  9997","REV_AT_EPOCH":"130","INCLINATION":"53.2169","GP_ID":"217204793","TLE_LINE2":"2 54187  53.2169  85.1338 0001436  57.4055 276.3968 15.73991930  1303","EPHEMERIS_TYPE":"0","BSTAR":"-0.00626370000000","PERIOD":"91.487","MEAN_ELEMENT_THEORY":"SGP4","SEMIMAJOR_AXIS":"6725.638","TIME_SYSTEM":"UTC","MEAN_MOTION_DDOT":"0.0000000000000","MEAN_MOTION":"15.73991930","MEAN_MOTION_DOT":"-0.00825853","RA_OF_ASC_NODE":"85.1338","LAUNCH_DATE":"2022-10-28","PERIAPSIS":"346.537","NORAD_CAT_ID":"54187","REF_FRAME":"TEME","CENTER_NAME":"EARTH","ECCENTRICITY":"0.00014360","DECAY_DATE":null,"COUNTRY_CODE":"US","MEAN_ANOMALY":"276.3968"},{"REV_AT_EPOCH":"130","TLE_LINE1":"1 54188U 22141AH  22312.91667824 -.00927789  00000-0 -70757-2 0  9991","INCLINATION":"53.2164","FILE":"3649076","GP_ID":"217204614","TLE_LINE2":"2 54188  53.2164  85.1239 0001699  40.9611 297.4326 15.74149000  1301","ARG_OF_PERICENTER":"40.9611","APOAPSIS":"348.199","OBJECT_ID":"2022-141AH","OBJECT_TYPE":"PAYLOAD","ELEMENT_SET_NO":"999","RCS_SIZE":"MEDIUM","SITE":"AFWTR","EPOCH":"2022-11-08T22:00:00.999936","OBJECT_NAME":"STARLINK-5238","CLASSIFICATION_TYPE":"U","REF_FRAME":"TEME","CENTER_NAME":"EARTH","MEAN_ANOMALY":"297.4326","ECCENTRICITY":"0.00016990","DECAY_DATE":null,"COUNTRY_CODE":"US","PERIOD":"91.478","BSTAR":"-0.00707570000000","EPHEMERIS_TYPE":"0","MEAN_ELEMENT_THEORY":"SGP4","TIME_SYSTEM":"UTC","SEMIMAJOR_AXIS":"6725.191","MEAN_MOTION_DDOT":"0.0000000000000","MEAN_MOTION_DOT":"-0.00927789","MEAN_MOTION":"15.74149000","LAUNCH_DATE":"2022-10-28","RA_OF_ASC_NODE":"85.1239","NORAD_CAT_ID":"54188","PERIAPSIS":"345.913"},{"LAUNCH_DATE":"2022-10-28","RA_OF_ASC_NODE":"85.1277","NORAD_CAT_ID":"54189","PERIAPSIS":"346.282","MEAN_MOTION_DOT":"-0.00764359","MEAN_MOTION":"15.73997704","TIME_SYSTEM":"UTC","SEMIMAJOR_AXIS":"6725.622","MEAN_MOTION_DDOT":"0.0000000000000","PERIOD":"91.487","EPHEMERIS_TYPE":"0","BSTAR":"-0.00575220000000","MEAN_ELEMENT_THEORY":"SGP4","MEAN_ANOMALY":"318.3817","COUNTRY_CODE":"US","DECAY_DATE":null,"ECCENTRICITY":"0.00017910","REF_FRAME":"TEME","CENTER_NAME":"EARTH","SITE":"AFWTR","EPOCH":"2022-11-08T22:00:00.999936","OBJECT_NAME":"STARLINK-5182","CLASSIFICATION_TYPE":"U","RCS_SIZE":null,"ELEMENT_SET_NO":"999","OBJECT_TYPE":"PAYLOAD","ARG_OF_PERICENTER":"18.3362","APOAPSIS":"348.691","OBJECT_ID":"2022-141AJ","TLE_LINE2":"2 54189  53.2169  85.1277 0001791  18.3362 318.3817 15.73997704  1303","REV_AT_EPOCH":"130","TLE_LINE1":"1 54189U 22141AJ  22312.91667824 -.00764359  00000-0 -57522-2 0  9999","INCLINATION":"53.2169","FILE":"3649076","GP_ID":"217205211"},{"RA_OF_ASC_NODE":"85.1218","LAUNCH_DATE":"2022-10-28","PERIAPSIS":"345.936","NORAD_CAT_ID":"54190","MEAN_MOTION":"15.74208853","MEAN_MOTION_DOT":"-0.00994510","TIME_SYSTEM":"UTC","SEMIMAJOR_AXIS":"6725.020","MEAN_MOTION_DDOT":"0.0000000000000","EPHEMERIS_TYPE":"0","BSTAR":"-0.00748970000000","PERIOD":"91.475","MEAN_ELEMENT_THEORY":"SGP4","DECAY_DATE":null,"ECCENTRICITY":"0.00014120","COUNTRY_CODE":"US","MEAN_ANOMALY":"289.3522","REF_FRAME":"TEME","CENTER_NAME":"EARTH","OBJECT_NAME":"STARLINK-5281","EPOCH":"2022-11-08T22:00:00.999936","CLASSIFICATION_TYPE":"U","SITE":"AFWTR","RCS_SIZE":"MEDIUM","ELEMENT_SET_NO":"999","OBJECT_TYPE":"PAYLOAD","ARG_OF_PERICENTER":"50.1767","OBJECT_ID":"2022-141AK","APOAPSIS":"347.835","TLE_LINE2":"2 54190  53.2166  85.1218 0001412  50.1767 289.3522 15.74208853  1301","FILE":"3649076","TLE_LINE1":"1 54190U 22141AK  22312.91667824 -.00994510  00000-0 -74897-2 0  9999","INCLINATION":"53.2166","REV_AT_EPOCH":"130","GP_ID":"217204032"},{"EPHEMERIS_TYPE":"0","BSTAR":"-0.00688820000000","PERIOD":"91.480","MEAN_ELEMENT_THEORY":"SGP4","TIME_SYSTEM":"UTC","SEMIMAJOR_AXIS":"6725.302","MEAN_MOTION_DDOT":"0.0000000000000","MEAN_MOTION":"15.74110139","MEAN_MOTION_DOT":"-0.00904297","RA_OF_ASC_NODE":"85.1266","LAUNCH_DATE":"2022-10-28","PERIAPSIS":"346.003","NORAD_CAT_ID":"54191","REF_FRAME":"TEME","CENTER_NAME":"EARTH","DECAY_DATE":null,"COUNTRY_CODE":"US","ECCENTRICITY":"0.00017300","MEAN_ANOMALY":"309.2769","ARG_OF_PERICENTER":"27.9704","OBJECT_ID":"2022-141AL","APOAPSIS":"348.330","OBJECT_TYPE":"PAYLOAD","ELEMENT_SET_NO":"999","RCS_SIZE":"MEDIUM","CLASSIFICATION_TYPE":"U","EPOCH":"2022-11-08T22:00:00.999936","OBJECT_NAME":"STARLINK-4619","SITE":"AFWTR","FILE":"3649076","TLE_LINE1":"1 54191U 22141AL  22312.91667824 -.00904297  00000-0 -68882-2 0  9990","INCLINATION":"53.2167","REV_AT_EPOCH":"130","GP_ID":"217205057","TLE_LINE2":"2 54191  53.2167  85.1266 0001730  27.9704 309.2769 15.74110139  1306"},{"FILE":"3649076","TLE_LINE1":"1 54192U 22141AM  22312.91667824 -.01113887  00000-0 -84242-2 0  9997","REV_AT_EPOCH":"130","INCLINATION":"53.2168","GP_ID":"217204203","TLE_LINE2":"2 54192  53.2168  85.1113 0001600  36.5652 308.0989 15.74395298  1305","ELEMENT_SET_NO":"999","OBJECT_TYPE":"PAYLOAD","ARG_OF_PERICENTER":"36.5652","OBJECT_ID":"2022-141AM","APOAPSIS":"347.430","EPOCH":"2022-11-08T22:00:00.999936","OBJECT_NAME":"STARLINK-5268","CLASSIFICATION_TYPE":"U","SITE":"AFWTR","RCS_SIZE":"MEDIUM","REF_FRAME":"TEME","CENTER_NAME":"EARTH","COUNTRY_CODE":"US","DECAY_DATE":null,"ECCENTRICITY":"0.00016000","MEAN_ANOMALY":"308.0989","SEMIMAJOR_AXIS":"6724.489","TIME_SYSTEM":"UTC","MEAN_MOTION_DDOT":"0.0000000000000","EPHEMERIS_TYPE":"0","BSTAR":"-0.00842420000000","PERIOD":"91.464","MEAN_ELEMENT_THEORY":"SGP4","RA_OF_ASC_NODE":"85.1113","LAUNCH_DATE":"2022-10-28","PERIAPSIS":"345.279","NORAD_CAT_ID":"54192","MEAN_MOTION":"15.74395298","MEAN_MOTION_DOT":"-0.01113887"},{"MEAN_ANOMALY":"305.7663","DECAY_DATE":null,"ECCENTRICITY":"0.00013390","COUNTRY_CODE":"US","CENTER_NAME":"EARTH","REF_FRAME":"TEME","NORAD_CAT_ID":"54193","PERIAPSIS":"345.896","LAUNCH_DATE":"2022-10-28","RA_OF_ASC_NODE":"85.1195","MEAN_MOTION_DOT":"-0.01010917","MEAN_MOTION":"15.74240186","MEAN_MOTION_DDOT":"0.0000000000000","SEMIMAJOR_AXIS":"6724.931","TIME_SYSTEM":"UTC","MEAN_ELEMENT_THEORY":"SGP4","PERIOD":"91.473","BSTAR":"-0.00761600000000","EPHEMERIS_TYPE":"0","TLE_LINE2":"2 54193  53.2167  85.1195 0001339  34.9117 305.7663 15.74240186  1300","GP_ID":"217204948","TLE_LINE1":"1 54193U 22141AN  22312.91667824 -.01010917  00000-0 -76160-2 0  9998","REV_AT_EPOCH":"130","INCLINATION":"53.2167","FILE":"3649076","SITE":"AFWTR","EPOCH":"2022-11-08T22:00:00.999936","CLASSIFICATION_TYPE":"U","OBJECT_NAME":"STARLINK-5263","RCS_SIZE":"MEDIUM","OBJECT_TYPE":"PAYLOAD","ELEMENT_SET_NO":"999","APOAPSIS":"347.697","OBJECT_ID":"2022-141AN","ARG_OF_PERICENTER":"34.9117"},{"OBJECT_ID":"2022-141AP","APOAPSIS":"347.632","ARG_OF_PERICENTER":"30.3351","OBJECT_TYPE":"PAYLOAD","ELEMENT_SET_NO":"999","RCS_SIZE":"MEDIUM","CLASSIFICATION_TYPE":"U","OBJECT_NAME":"STARLINK-5271","EPOCH":"2022-11-08T22:00:00.999936","SITE":"AFWTR","GP_ID":"217204443","FILE":"3649076","TLE_LINE1":"1 54194U 22141AP  22312.91667824 -.01032721  00000-0 -77846-2 0  9998","REV_AT_EPOCH":"130","INCLINATION":"53.2168","TLE_LINE2":"2 54194  53.2168  85.1171 0001405  30.3351 311.4859 15.74278622  1307","MEAN_ELEMENT_THEORY":"SGP4","BSTAR":"-0.00778460000000","EPHEMERIS_TYPE":"0","PERIOD":"91.470","MEAN_MOTION_DDOT":"0.0000000000000","TIME_SYSTEM":"UTC","SEMIMAJOR_AXIS":"6724.822","MEAN_MOTION":"15.74278622","MEAN_MOTION_DOT":"-0.01032721","PERIAPSIS":"345.742","NORAD_CAT_ID":"54194","RA_OF_ASC_NODE":"85.1171","LAUNCH_DATE":"2022-10-28","CENTER_NAME":"EARTH","REF_FRAME":"TEME","DECAY_DATE":null,"ECCENTRICITY":"0.00014050","COUNTRY_CODE":"US","MEAN_ANOMALY":"311.4859"}];
